{
  "type": "FeatureCollection",
  "features": [
    {
      "type": "Feature",
      "properties": {
        "norad_id": 66983,
        "name": "STARLINK-36145",
        "group": "last-30-days",
        "lat": 12.814732630334445,
        "lon": 90.42298306847823,
        "alt_km": 400.78213591450185,
        "timestamp": "2025-12-27T16:33:28.974983+00:00",
        "meta_object_name": "STARLINK-36145",
        "meta_object_id": "2025-288AA",
        "meta_epoch": "2025-12-27T12:00:02.000160",
        "meta_mean_motion": 15.55693224,
        "meta_eccentricity": 0.0001448,
        "meta_inclination": 42.9996,
        "meta_ra_of_asc_node": 77.4129,
        "meta_arg_of_pericenter": 279.1889,
        "meta_mean_anomaly": 115.3649,
        "meta_ephemeris_type": 0,
        "meta_classification_type": "U",
        "meta_norad_cat_id": 66983,
        "meta_element_set_no": 999,
        "meta_rev_at_epoch": 420,
        "meta_bstar": -0.032476,
        "meta_mean_motion_dot": -0.02047108,
        "meta_mean_motion_ddot": 0,
        "tle_line1": "1 66983U 25288AA  25361.50002315 -.02047108  00000+0 -32476-1 0  9996",
        "tle_line2": "2 66983  42.9996  77.4129 0001448 279.1889 115.3649 15.55693224  4201"
      },
      "geometry": {
        "type": "Point",
        "coordinates": [
          90.42298306847823,
          12.814732630334445
        ]
      }
    },
    {
      "type": "Feature",
      "properties": {
        "norad_id": 66984,
        "name": "STARLINK-35591",
        "group": "last-30-days",
        "lat": 11.544248642447045,
        "lon": 88.96032582916571,
        "alt_km": 400.97700718159103,
        "timestamp": "2025-12-27T16:33:28.974993+00:00",
        "meta_object_name": "STARLINK-35591",
        "meta_object_id": "2025-288AB",
        "meta_epoch": "2025-12-27T12:00:02.000160",
        "meta_mean_motion": 15.55696812,
        "meta_eccentricity": 0.000141,
        "meta_inclination": 42.9996,
        "meta_ra_of_asc_node": 77.4172,
        "meta_arg_of_pericenter": 277.0093,
        "meta_mean_anomaly": 115.6289,
        "meta_ephemeris_type": 0,
        "meta_classification_type": "U",
        "meta_norad_cat_id": 66984,
        "meta_element_set_no": 999,
        "meta_rev_at_epoch": 420,
        "meta_bstar": -0.032596,
        "meta_mean_motion_dot": -0.02054101,
        "meta_mean_motion_ddot": 0,
        "tle_line1": "1 66984U 25288AB  25361.50002315 -.02054101  00000+0 -32596-1 0  9991",
        "tle_line2": "2 66984  42.9996  77.4172 0001410 277.0093 115.6289 15.55696812  4202"
      },
      "geometry": {
        "type": "Point",
        "coordinates": [
          88.96032582916571,
          11.544248642447045
        ]
      }
    },
    {
      "type": "Feature",
      "properties": {
        "norad_id": 66985,
        "name": "STARLINK-36103",
        "group": "last-30-days",
        "lat": 14.079518461413295,
        "lon": 91.90263156808656,
        "alt_km": 400.59287115744974,
        "timestamp": "2025-12-27T16:33:28.975003+00:00",
        "meta_object_name": "STARLINK-36103",
        "meta_object_id": "2025-288AC",
        "meta_epoch": "2025-12-27T12:00:02.000160",
        "meta_mean_motion": 15.55693696,
        "meta_eccentricity": 0.0001517,
        "meta_inclination": 42.9996,
        "meta_ra_of_asc_node": 77.4078,
        "meta_arg_of_pericenter": 281.2385,
        "meta_mean_anomaly": 115.233,
        "meta_ephemeris_type": 0,
        "meta_classification_type": "U",
        "meta_norad_cat_id": 66985,
        "meta_element_set_no": 999,
        "meta_rev_at_epoch": 420,
        "meta_bstar": -0.032519,
        "meta_mean_motion_dot": -0.02049621,
        "meta_mean_motion_ddot": 0,
        "tle_line1": "1 66985U 25288AC  25361.50002315 -.02049621  00000+0 -32519-1 0  9998",
        "tle_line2": "2 66985  42.9996  77.4078 0001517 281.2385 115.2330 15.55693696  4207"
      },
      "geometry": {
        "type": "Point",
        "coordinates": [
          91.90263156808656,
          14.079518461413295
        ]
      }
    },
    {
      "type": "Feature",
      "properties": {
        "norad_id": 66986,
        "name": "STARLINK-36135",
        "group": "last-30-days",
        "lat": 15.335065453498641,
        "lon": 93.39825694320189,
        "alt_km": 400.44510931116474,
        "timestamp": "2025-12-27T16:33:28.975012+00:00",
        "meta_object_name": "STARLINK-36135",
        "meta_object_id": "2025-288AD",
        "meta_epoch": "2025-12-27T12:00:02.000160",
        "meta_mean_motion": 15.55697095,
        "meta_eccentricity": 0.0001415,
        "meta_inclination": 42.9998,
        "meta_ra_of_asc_node": 77.4024,
        "meta_arg_of_pericenter": 280.1238,
        "meta_mean_anomaly": 118.2659,
        "meta_ephemeris_type": 0,
        "meta_classification_type": "U",
        "meta_norad_cat_id": 66986,
        "meta_element_set_no": 999,
        "meta_rev_at_epoch": 420,
        "meta_bstar": -0.032627,
        "meta_mean_motion_dot": -0.02055856,
        "meta_mean_motion_ddot": 0,
        "tle_line1": "1 66986U 25288AD  25361.50002315 -.02055856  00000+0 -32627-1 0  9996",
        "tle_line2": "2 66986  42.9998  77.4024 0001415 280.1238 118.2659 15.55697095  4207"
      },
      "geometry": {
        "type": "Point",
        "coordinates": [
          93.39825694320189,
          15.335065453498641
        ]
      }
    },
    {
      "type": "Feature",
      "properties": {
        "norad_id": 66987,
        "name": "STARLINK-36147",
        "group": "last-30-days",
        "lat": 16.57901593351636,
        "lon": 94.9111934679287,
        "alt_km": 400.28065481590147,
        "timestamp": "2025-12-27T16:33:28.975022+00:00",
        "meta_object_name": "STARLINK-36147",
        "meta_object_id": "2025-288AE",
        "meta_epoch": "2025-12-27T12:00:02.000160",
        "meta_mean_motion": 15.55695607,
        "meta_eccentricity": 0.0001553,
        "meta_inclination": 43.0001,
        "meta_ra_of_asc_node": 77.3981,
        "meta_arg_of_pericenter": 281.4441,
        "meta_mean_anomaly": 118.8604,
        "meta_ephemeris_type": 0,
        "meta_classification_type": "U",
        "meta_norad_cat_id": 66987,
        "meta_element_set_no": 999,
        "meta_rev_at_epoch": 420,
        "meta_bstar": -0.032573,
        "meta_mean_motion_dot": -0.02052798,
        "meta_mean_motion_ddot": 0,
        "tle_line1": "1 66987U 25288AE  25361.50002315 -.02052798  00000+0 -32573-1 0  9999",
        "tle_line2": "2 66987  43.0001  77.3981 0001553 281.4441 118.8604 15.55695607  4202"
      },
      "geometry": {
        "type": "Point",
        "coordinates": [
          94.9111934679287,
          16.57901593351636
        ]
      }
    },
    {
      "type": "Feature",
      "properties": {
        "norad_id": 66988,
        "name": "YAOGAN-47",
        "group": "last-30-days",
        "lat": -23.29235026755495,
        "lon": -116.4150276400487,
        "alt_km": 501.8345973202995,
        "timestamp": "2025-12-27T16:33:28.975032+00:00",
        "meta_object_name": "YAOGAN-47",
        "meta_object_id": "2025-289A",
        "meta_epoch": "2025-12-20T02:21:43.539840",
        "meta_mean_motion": 15.23243112,
        "meta_eccentricity": 6.467e-05,
        "meta_inclination": 97.5265,
        "meta_ra_of_asc_node": 59.2376,
        "meta_arg_of_pericenter": 91.4531,
        "meta_mean_anomaly": 268.678,
        "meta_ephemeris_type": 0,
        "meta_classification_type": "U",
        "meta_norad_cat_id": 66988,
        "meta_element_set_no": 999,
        "meta_rev_at_epoch": 166,
        "meta_bstar": 0.00010945697,
        "meta_mean_motion_dot": 2.52e-05,
        "meta_mean_motion_ddot": 0,
        "tle_line1": "1 66988U 25289A   25354.09842060  .00002520  00000+0  10946-3 0  9992",
        "tle_line2": "2 66988  97.5265  59.2376 0000646  91.4531 268.6780 15.23243112  1668"
      },
      "geometry": {
        "type": "Point",
        "coordinates": [
          -116.4150276400487,
          -23.29235026755495
        ]
      }
    },
    {
      "type": "Feature",
      "properties": {
        "norad_id": 66989,
        "name": "CZ-4B R/B",
        "group": "last-30-days",
        "lat": -45.200318215403406,
        "lon": 75.79216379501864,
        "alt_km": 271.28709428843194,
        "timestamp": "2025-12-27T16:33:28.975044+00:00",
        "meta_object_name": "CZ-4B R/B",
        "meta_object_id": "2025-289B",
        "meta_epoch": "2025-12-27T10:37:57.809280",
        "meta_mean_motion": 15.70879621,
        "meta_eccentricity": 0.0137707,
        "meta_inclination": 97.5228,
        "meta_ra_of_asc_node": 67.8786,
        "meta_arg_of_pericenter": 307.1065,
        "meta_mean_anomaly": 51.7676,
        "meta_ephemeris_type": 0,
        "meta_classification_type": "U",
        "meta_norad_cat_id": 66989,
        "meta_element_set_no": 999,
        "meta_rev_at_epoch": 287,
        "meta_bstar": 0.00059203,
        "meta_mean_motion_dot": 0.00129868,
        "meta_mean_motion_ddot": 7.2162e-06,
        "tle_line1": "1 66989U 25289B   25361.44303020  .00129868  72162-5  59203-3 0  9996",
        "tle_line2": "2 66989  97.5228  67.8786 0137707 307.1065  51.7676 15.70879621  2877"
      },
      "geometry": {
        "type": "Point",
        "coordinates": [
          75.79216379501864,
          -45.200318215403406
        ]
      }
    }
  ]
}